[{"OBJECT_NAME":"STARLINK-35457","OBJECT_ID":"2025-259M","EPOCH":"2026-03-09T22:42:02.789568","MEAN_MOTION":15.27604667,"ECCENTRICITY":0.00028698,"INCLINATION":43.0058,"RA_OF_ASC_NODE":272.6221,"ARG_OF_PERICENTER":251.7755,"MEAN_ANOMALY":108.2784,"EPHEMERIS_TYPE":0,"CLASSIFICATION_TYPE":"U","NORAD_CAT_ID":66433,"ELEMENT_SET_NO":999,"REV_AT_EPOCH":1953,"BSTAR":0.0014322783,"MEAN_MOTION_DOT":0.00039394,"MEAN_MOTION_DDOT":0},{"OBJECT_NAME":"CZ-2D DEB","OBJECT_ID":"2010-027D","EPOCH":"2026-03-07T13:36:06.977952","MEAN_MOTION":15.23568143,"ECCENTRICITY":0.0065729,"INCLINATION":97.6621,"RA_OF_ASC_NODE":290.9585,"ARG_OF_PERICENTER":344.0278,"MEAN_ANOMALY":15.8885,"EPHEMERIS_TYPE":0,"CLASSIFICATION_TYPE":"U","NORAD_CAT_ID":38299,"ELEMENT_SET_NO":999,"REV_AT_EPOCH":83553,"BSTAR":0.0024156,"MEAN_MOTION_DOT":0.00061723,"MEAN_MOTION_DDOT":0}]
